UWE-3                   
1 39446U 13066AG  26068.86347791  .00006533  00000+0  57142-3 0  9997
2 39446  97.8589  24.3957 0048462 291.5404  68.0655 14.96183146662729
STARLINK-34805          
1 65071U 25165R   26068.72881737  .00000932  00000+0  68802-4 0  9994
2 65071  97.6032 147.2278 0000704 127.4817 232.6474 15.05650108 34792
